{
  "type": "FeatureCollection",
  "features": [
    {
      "type": "Feature",
      "properties": {
        "norad_id": 43262,
        "name": "GAOFEN-1 04",
        "group": "resource",
        "lat": -23.339975393953942,
        "lon": 54.80352959678365,
        "alt_km": 646.0559122691111,
        "timestamp": "2025-12-19T10:50:00.849359+00:00",
        "meta_object_name": "GAOFEN-1 04",
        "meta_object_id": "2018-031D",
        "meta_epoch": "2025-12-19T02:48:26.925984",
        "meta_mean_motion": 14.76418955,
        "meta_eccentricity": 6.75e-05,
        "meta_inclination": 98.08,
        "meta_ra_of_asc_node": 50.9547,
        "meta_arg_of_pericenter": 58.2218,
        "meta_mean_anomaly": 301.9057,
        "meta_ephemeris_type": 0,
        "meta_classification_type": "U",
        "meta_norad_cat_id": 43262,
        "meta_element_set_no": 999,
        "meta_rev_at_epoch": 41611,
        "meta_bstar": 0.00010993,
        "meta_mean_motion_dot": 7.12e-06,
        "meta_mean_motion_ddot": 0,
        "tle_line1": "1 43262U 18031D   25353.11697831  .00000712  00000+0  10993-3 0  9998",
        "tle_line2": "2 43262  98.0800  50.9547 0000675  58.2218 301.9057 14.76418955416116"
      },
      "geometry": {
        "type": "Point",
        "coordinates": [
          54.80352959678365,
          -23.339975393953942
        ]
      }
    },
    {
      "type": "Feature",
      "properties": {
        "norad_id": 43437,
        "name": "SENTINEL-3B",
        "group": "resource",
        "lat": 23.391033023191536,
        "lon": 54.77542920096263,
        "alt_km": 801.7351525279046,
        "timestamp": "2025-12-19T10:50:00.849369+00:00",
        "meta_object_name": "SENTINEL-3B",
        "meta_object_id": "2018-039A",
        "meta_epoch": "2025-12-18T19:34:29.618976",
        "meta_mean_motion": 14.26736281,
        "meta_eccentricity": 0.0001618,
        "meta_inclination": 98.6261,
        "meta_ra_of_asc_node": 57.9137,
        "meta_arg_of_pericenter": 95.564,
        "meta_mean_anomaly": 264.5725,
        "meta_ephemeris_type": 0,
        "meta_classification_type": "U",
        "meta_norad_cat_id": 43437,
        "meta_element_set_no": 999,
        "meta_rev_at_epoch": 39840,
        "meta_bstar": 6.5108738e-05,
        "meta_mean_motion_dot": 1.14e-06,
        "meta_mean_motion_ddot": 0,
        "tle_line1": "1 43437U 18039A   25352.81562059  .00000114  00000+0  65109-4 0  9995",
        "tle_line2": "2 43437  98.6261  57.9137 0001618  95.5640 264.5725 14.26736281398407"
      },
      "geometry": {
        "type": "Point",
        "coordinates": [
          54.77542920096263,
          23.391033023191536
        ]
      }
    },
    {
      "type": "Feature",
      "properties": {
        "norad_id": 43461,
        "name": "GAOFEN-5 01",
        "group": "resource",
        "lat": 72.44482382081239,
        "lon": 164.5024022900559,
        "alt_km": 685.2475159655269,
        "timestamp": "2025-12-19T10:50:00.849379+00:00",
        "meta_object_name": "GAOFEN-5 01",
        "meta_object_id": "2018-043A",
        "meta_epoch": "2025-12-18T21:11:52.396512",
        "meta_mean_motion": 14.60416266,
        "meta_eccentricity": 5.996e-05,
        "meta_inclination": 98.4332,
        "meta_ra_of_asc_node": 315.9579,
        "meta_arg_of_pericenter": 306.2833,
        "meta_mean_anomaly": 53.8311,
        "meta_ephemeris_type": 0,
        "meta_classification_type": "U",
        "meta_norad_cat_id": 43461,
        "meta_element_set_no": 999,
        "meta_rev_at_epoch": 40537,
        "meta_bstar": 8.1639853e-05,
        "meta_mean_motion_dot": 3.47e-06,
        "meta_mean_motion_ddot": 0,
        "tle_line1": "1 43461U 18043A   25352.88324533  .00000347  00000+0  81640-4 0  9993",
        "tle_line2": "2 43461  98.4332 315.9579 0000599 306.2833  53.8311 14.60416266405372"
      },
      "geometry": {
        "type": "Point",
        "coordinates": [
          164.5024022900559,
          72.44482382081239
        ]
      }
    },
    {
      "type": "Feature",
      "properties": {
        "norad_id": 43484,
        "name": "GAOFEN-6",
        "group": "resource",
        "lat": 48.75132154043693,
        "lon": -113.51030358269854,
        "alt_km": 635.2679973574695,
        "timestamp": "2025-12-19T10:50:00.849389+00:00",
        "meta_object_name": "GAOFEN-6",
        "meta_object_id": "2018-048A",
        "meta_epoch": "2025-12-18T22:51:39.016224",
        "meta_mean_motion": 14.76577528,
        "meta_eccentricity": 0.00129389,
        "meta_inclination": 97.8031,
        "meta_ra_of_asc_node": 57.0111,
        "meta_arg_of_pericenter": 45.266,
        "meta_mean_anomaly": 314.9601,
        "meta_ephemeris_type": 0,
        "meta_classification_type": "U",
        "meta_norad_cat_id": 43484,
        "meta_element_set_no": 999,
        "meta_rev_at_epoch": 40679,
        "meta_bstar": 0.00012369559,
        "meta_mean_motion_dot": 8.15e-06,
        "meta_mean_motion_ddot": 0,
        "tle_line1": "1 43484U 18048A   25352.95253491  .00000815  00000+0  12370-3 0  9998",
        "tle_line2": "2 43484  97.8031  57.0111 0012938  45.2660 314.9601 14.76577528406796"
      },
      "geometry": {
        "type": "Point",
        "coordinates": [
          -113.51030358269854,
          48.75132154043693
        ]
      }
    },
    {
      "type": "Feature",
      "properties": {
        "norad_id": 43585,
        "name": "GAOFEN-11 01",
        "group": "resource",
        "lat": -70.37461729456298,
        "lon": -144.30236832619042,
        "alt_km": 423.4136704301809,
        "timestamp": "2025-12-19T10:50:00.849399+00:00",
        "meta_object_name": "GAOFEN-11 01",
        "meta_object_id": "2018-063A",
        "meta_epoch": "2025-12-18T22:54:00.952416",
        "meta_mean_motion": 15.49387827,
        "meta_eccentricity": 0.00039893,
        "meta_inclination": 97.1566,
        "meta_ra_of_asc_node": 55.8368,
        "meta_arg_of_pericenter": 281.6841,
        "meta_mean_anomaly": 78.3963,
        "meta_ephemeris_type": 0,
        "meta_classification_type": "U",
        "meta_norad_cat_id": 43585,
        "meta_element_set_no": 999,
        "meta_rev_at_epoch": 41238,
        "meta_bstar": 0.00017797366,
        "meta_mean_motion_dot": 9.673e-05,
        "meta_mean_motion_ddot": 0,
        "tle_line1": "1 43585U 18063A   25352.95417769  .00009673  00000+0  17797-3 0  9996",
        "tle_line2": "2 43585  97.1566  55.8368 0003989 281.6841  78.3963 15.49387827412383"
      },
      "geometry": {
        "type": "Point",
        "coordinates": [
          -144.30236832619042,
          -70.37461729456298
        ]
      }
    },
    {
      "type": "Feature",
      "properties": {
        "norad_id": 43613,
        "name": "ICESAT-2",
        "group": "resource",
        "lat": -18.764051479291187,
        "lon": 61.866423243734246,
        "alt_km": 485.51595403863394,
        "timestamp": "2025-12-19T10:50:00.849409+00:00",
        "meta_object_name": "ICESAT-2",
        "meta_object_id": "2018-070A",
        "meta_epoch": "2025-12-18T21:23:43.897056",
        "meta_mean_motion": 15.28302033,
        "meta_eccentricity": 0.00029087,
        "meta_inclination": 92.0051,
        "meta_ra_of_asc_node": 242.3973,
        "meta_arg_of_pericenter": 128.7002,
        "meta_mean_anomaly": 231.4508,
        "meta_ephemeris_type": 0,
        "meta_classification_type": "U",
        "meta_norad_cat_id": 43613,
        "meta_element_set_no": 999,
        "meta_rev_at_epoch": 40492,
        "meta_bstar": 0.00035915988,
        "meta_mean_motion_dot": 9.9e-05,
        "meta_mean_motion_ddot": 0,
        "tle_line1": "1 43613U 18070A   25352.89148029  .00009900  00000+0  35916-3 0  9995",
        "tle_line2": "2 43613  92.0051 242.3973 0002908 128.7002 231.4508 15.28302033404924"
      },
      "geometry": {
        "type": "Point",
        "coordinates": [
          61.866423243734246,
          -18.764051479291187
        ]
      }
    },
    {
      "type": "Feature",
      "properties": {
        "norad_id": 43719,
        "name": "HYSIS",
        "group": "resource",
        "lat": -35.78293234877126,
        "lon": -129.42834042591926,
        "alt_km": 640.6389220161909,
        "timestamp": "2025-12-19T10:50:00.849419+00:00",
        "meta_object_name": "HYSIS",
        "meta_object_id": "2018-096A",
        "meta_epoch": "2025-12-18T22:29:26.920032",
        "meta_mean_motion": 14.78660948,
        "meta_eccentricity": 0.00011223,
        "meta_inclination": 98.0097,
        "meta_ra_of_asc_node": 55.8849,
        "meta_arg_of_pericenter": 50.4304,
        "meta_mean_anomaly": 309.7006,
        "meta_ephemeris_type": 0,
        "meta_classification_type": "U",
        "meta_norad_cat_id": 43719,
        "meta_element_set_no": 999,
        "meta_rev_at_epoch": 38078,
        "meta_bstar": 0.0001298207,
        "meta_mean_motion_dot": 8.99e-06,
        "meta_mean_motion_ddot": 0,
        "tle_line1": "1 43719U 18096A   25352.93711713  .00000899  00000+0  12982-3 0  9997",
        "tle_line2": "2 43719  98.0097  55.8849 0001122  50.4304 309.7006 14.78660948380784"
      },
      "geometry": {
        "type": "Point",
        "coordinates": [
          -129.42834042591926,
          -35.78293234877126
        ]
      }
    }
  ]
}